[ {"name": "STARLINK-11182 [DTC]", "line1": "1 60399U 24141B   26200.28555211 -.00000297  00000+0  24063-5 0  9996", "line2": "2 60399  53.1596 157.3883 0001007  86.8373 273.2760 15.69710641112412"}, {"name": "STARLINK-11234 [DTC]", "line1": "1 60400U 24141C   26200.28064907  .00001679  00000+0  18727-4 0  9999", "line2": "2 60400  53.1604 157.3519 0001334  94.3924 265.7247 15.69697837112361"}, {"name": "STARLINK-11232 [DTC]", "line1": "1 60401U 24141D   26200.59409666  .00004718  00000+0  43801-4 0  9997", "line2": "2 60401  53.1594 155.7533 0001330  89.8977 270.2194 15.69696826112461"}, {"name": "STARLINK-11139 [DTC]", "line1": "1 60402U 24141E   26200.58918382  .00000029  00000+0  50953-5 0  9995", "line2": "2 60402  53.1602 155.7238 0001166  87.8804 272.2347 15.69707106112464"}, {"name": "STARLINK-11158 [DTC]", "line1": "1 60403U 24141F   26200.58437949  .00000456  00000+0  86245-5 0  9998", "line2": "2 60403  53.1592 156.4208 0001051 103.1121 257.0015 15.69707878112408"}, {"name": "STARLINK-11199 [DTC]", "line1": "1 60404U 24141G   26200.57946998  .00000306  00000+0  73788-5 0  9999", "line2": "2 60404  53.1608 156.3887 0000941  94.1840 265.9285 15.69711574112453"}, {"name": "STARLINK-11081 [DTC]", "line1": "1 60405U 24141H   26200.25622174 -.00000090  00000+0  41189-5 0  9993", "line2": "2 60405  53.1604 157.9247 0001098  86.1819 273.9324 15.69705870112352"}, {"name": "STARLINK-11150 [DTC]", "line1": "1 60406U 24141J   26200.31498294  .00000116  00000+0  58148-5 0  9996", "line2": "2 60406  53.1594 157.5784 0001032  75.8216 284.2917 15.69710287112415"}, {"name": "STARLINK-11136 [DTC]", "line1": "1 60407U 24141K   26200.31007782 -.00002410  00000+0 -15043-4 0  9992", "line2": "2 60407  53.1592 157.5451 0000463  83.9589 276.1482 15.69721911112362"}, {"name": "STARLINK-11196 [DTC]", "line1": "1 60408U 24141L   26200.17783590  .00002756  00000+0  27611-4 0  9990", "line2": "2 60408  53.1602 158.1400 0001225  95.8030 264.3128 15.69697777112397"}, {"name": "STARLINK-11174 [DTC]", "line1": "1 60409U 24141M   26200.16802388 -.00000519  00000+0  57292-6 0  9993", "line2": "2 60409  53.1584 158.0756 0000883  92.6647 267.4472 15.69709002112344"}, {"name": "STARLINK-11191 [DTC]", "line1": "1 60410U 24141N   26200.16312118 -.00000195  00000+0  32530-5 0  9999", "line2": "2 60410  53.1602 158.0432 0001128  89.6629 270.4518 15.69708403112391"}, {"name": "STARLINK-32244", "line1": "1 60411U 24141P   26199.80389278 -.00002007  00000+0 -52892-4 0  9996", "line2": "2 60411  53.1615 352.9477 0001347  93.7355 266.3801 15.31710939109666"}, {"name": "STARLINK-32186", "line1": "1 60412U 24141Q   26200.42752978 -.00006119  00000+0 -16997-3 0  9992", "line2": "2 60412  53.1626 348.3180 0000850  88.9570 271.1530 15.34425689109720"}, {"name": "STARLINK-32178", "line1": "1 60413U 24141R   26199.83289323 -.00000238  00000+0  40837-5 0  9991", "line2": "2 60413  53.1616 351.0016 0001236  83.4392 276.6751 15.34393708109631"}, {"name": "STARLINK-32234", "line1": "1 60414U 24141S   26200.44705798 -.00004601  00000+0 -13654-3 0  9995", "line2": "2 60414  53.1598 349.8498 0001440  78.9207 281.1956 15.31711727109765"}, {"name": "STARLINK-32265", "line1": "1 60415U 24141T   26200.42543062  .00000312  00000+0  20373-4 0  9998", "line2": "2 60415  53.1616 348.3029 0001225  88.4031 271.7112 15.34389663109787"}, {"name": "STARLINK-32197", "line1": "1 60416U 24141U   26199.66636849  .00000281  00000+0  20819-4 0  9998", "line2": "2 60416  53.1614 343.5491 0001179  96.5504 263.5631 15.31706386109720"}, {"name": "STARLINK-32255", "line1": "1 60417U 24141V   26199.79932371  .00000437  00000+0  24089-4 0  9998", "line2": "2 60417  53.1611 351.5042 0001259  89.2199 270.8948 15.34386171109683"}, {"name": "STARLINK-32236", "line1": "1 60418U 24141W   26200.12710750  .00000097  00000+0  14021-4 0  9991", "line2": "2 60418  53.1611 349.9936 0001364  92.6121 267.5037 15.34387177109732"}, {"name": "STARLINK-32250", "line1": "1 60425U 24144A   26200.49826465  .00000084  00000+0  13633-4 0  9997", "line2": "2 60425  53.1599 323.9114 0001117  99.7439 260.3690 15.34387897108601"}, {"name": "STARLINK-32226", "line1": "1 60426U 24144B   26200.63484346  .00001308  00000+0  49830-4 0  9990", "line2": "2 60426  53.1572 323.3388 0000831  93.7240 266.3858 15.34393961109529"}, {"name": "STARLINK-32254", "line1": "1 60427U 24144C   26200.49616158  .00000292  00000+0  19788-4 0  9993", "line2": "2 60427  53.1573 323.8941 0000897  87.4669 272.6436 15.34388396109548"}, {"name": "STARLINK-32193", "line1": "1 60428U 24144D   26200.38062048  .00001370  00000+0  51688-4 0  9998", "line2": "2 60428  53.1593 324.5950 0000919 100.2476 259.8630 15.34387871109522"}, {"name": "STARLINK-32242", "line1": "1 60429U 24144E   26200.33651456  .00000797  00000+0  34778-4 0  9994", "line2": "2 60429  53.1489 325.0317 0003755  81.4683 278.6745 15.34393466109513"}, {"name": "STARLINK-32196", "line1": "1 60430U 24144F   26200.62385024  .00001197  00000+0  46556-4 0  9995", "line2": "2 60430  53.1616 321.8528 0000806  87.4807 272.6288 15.34396425109540"}, {"name": "STARLINK-32232", "line1": "1 60431U 24144G   26199.73557656  .00001816  00000+0  64948-4 0  9990", "line2": "2 60431  53.1582 327.6833 0002678  59.0573 301.0692 15.34368821109387"}, {"name": "STARLINK-32246", "line1": "1 60432U 24144H   26200.50246925  .00000853  00000+0  36371-4 0  9992", "line2": "2 60432  53.1594 323.9320 0001316  93.2674 266.8479 15.34395562109508"}, {"name": "STARLINK-32183", "line1": "1 60433U 24144J   26200.63905215  .00000910  00000+0  38054-4 0  9995", "line2": "2 60433  53.1623 323.3613 0000993  89.5935 270.5182 15.34394107109528"}, {"name": "STARLINK-32233", "line1": "1 60434U 24144K   26200.62806331  .00001352  00000+0  51157-4 0  9994", "line2": "2 60434  53.1591 321.8763 0000872  85.9721 274.1381 15.34391374109547"}, {"name": "STARLINK-32222", "line1": "1 60435U 24144L   26200.48516508  .00000901  00000+0  37796-4 0  9995", "line2": "2 60435  53.1610 322.4044 0001241  82.5026 277.6118 15.34392982109521"}, {"name": "STARLINK-32229", "line1": "1 60436U 24144M   26200.47885729 -.00000733  00000+0 -10574-4 0  9999", "line2": "2 60436  53.1595 322.3655 0001018  94.0858 266.0261 15.34385281109529"}, {"name": "STARLINK-32241", "line1": "1 60437U 24144N   26200.63437849 -.00000233  00000+0  42462-5 0  9990", "line2": "2 60437  53.1635 321.9175 0001420  92.9966 267.1199 15.34391365109545"}, {"name": "STARLINK-32240", "line1": "1 60438U 24144P   26200.60702069 -.00000599  00000+0 -66019-5 0  9997", "line2": "2 60438  53.1575 321.7452 0001097  88.7289 271.3840 15.34393409109581"}, {"name": "STARLINK-32231", "line1": "1 60439U 24144Q   26200.49569064  .00002716  00000+0  91526-4 0  9992", "line2": "2 60439  53.1606 322.4699 0001150  99.6269 260.4864 15.34383859108624"}, {"name": "STARLINK-32195", "line1": "1 60440U 24144R   26200.34227158 -.00000930  00000+0 -16404-4 0  9993", "line2": "2 60440  53.1592 322.9344 0001565  95.2871 264.8310 15.34388543109500"}, {"name": "STARLINK-32177", "line1": "1 60441U 24144S   26200.07331077  .00000639  00000+0  30075-4 0  9994", "line2": "2 60441  53.1607 324.0983 0001433 115.3180 244.7971 15.34383545109463"}, {"name": "STARLINK-32252", "line1": "1 60442U 24144T   26200.60491513 -.00000304  00000+0  21278-5 0  9992", "line2": "2 60442  53.1608 321.7317 0001148  91.4526 268.6608 15.34393402109589"}, {"name": "STARLINK-32237", "line1": "1 60443U 24144U   26200.50200584  .00001694  00000+0  61274-4 0  9999", "line2": "2 60443  53.1602 322.5076 0001251  90.1354 269.9792 15.34389293109520"}, {"name": "STARLINK-32249", "line1": "1 60444U 24144V   26200.48726758 -.00000055  00000+0  95023-5 0  9994", "line2": "2 60444  53.1596 322.4159 0000538  85.2046 274.9018 15.34392700109562"}, {"name": "STARLINK-32228", "line1": "1 60445U 24144W   26200.32544367 -.00000407  00000+0 -92144-6 0  9996", "line2": "2 60445  53.1608 322.8301 0000927  89.4479 270.6629 15.34384070109548"}, {"name": "STARLINK-32247", "line1": "1 60446U 24144X   26200.31101651  .00006491  00000+0  20227-3 0  9998", "line2": "2 60446  53.1632 314.7826 0000190  26.1081 333.9932 15.34525045109658"}, {"name": "STARLINK-32101", "line1": "1 60447U 24144Y   26200.32965263  .00003528  00000+0  11556-3 0  9990", "line2": "2 60447  53.1608 322.8568 0000819  62.7831 297.3255 15.34383655109506"}, {"name": "STARLINK-31844", "line1": "1 60583U 24150A   26200.33218151  .00000121  00000+0  15663-4 0  9996", "line2": "2 60583  53.1605  54.3445 0001500  91.8849 268.2324 15.31701717108216"}, {"name": "STARLINK-32204", "line1": "1 60584U 24150B   26200.55623405 -.00000868  00000+0 -14541-4 0  9997", "line2": "2 60584  53.1598  52.1903 0001644  79.3340 280.7848 15.34396170108260"}, {"name": "STARLINK-32130", "line1": "1 60585U 24150C   26200.00888776  .00000116  00000+0  16053-4 0  9996", "line2": "2 60585  53.1607  57.2960 0001276  86.9424 273.1723 15.30201133108065"}, {"name": "STARLINK-32173", "line1": "1 60586U 24150D   26200.00147867  .00001756  00000+0  63116-4 0  9999", "line2": "2 60586  53.1590  54.4123 0001259  90.9475 269.1672 15.34395759108182"}, {"name": "STARLINK-31911", "line1": "1 60587U 24150E   26200.61714169  .00002043  00000+0  71552-4 0  9995", "line2": "2 60587  53.1598  51.8580 0001348 100.0531 260.0624 15.34409629108194"}, {"name": "STARLINK-31994", "line1": "1 60588U 24150F   26200.58139385  .00002065  00000+0  72291-4 0  9998", "line2": "2 60588  53.1601  51.6338 0001565 122.0521 238.0634 15.34381543108193"}, {"name": "STARLINK-32169", "line1": "1 60589U 24150G   26200.02049692  .00000744  00000+0  37249-4 0  9995", "line2": "2 60589  53.1608  57.3679 0001330  87.1486 272.9667 15.30199577108141"}, {"name": "STARLINK-32209", "line1": "1 60590U 24150H   26200.00779813 -.00002076  00000+0 -50363-4 0  9994", "line2": "2 60590  53.1601  54.4524 0001279  86.9194 273.1955 15.34380695108182"}]